FALCON 9 DEB            
1 53441U 22097BF  22241.60470980  .02868098  12019-4  62517-3 0  9994
2 53441  53.2091 147.9306 0021189 127.9084 232.3880 16.29049941  3173
FALCON 9 DEB            
1 53442U 22097BG  22241.58705423  .03459683  12103-4  55791-3 0  9992
2 53442  53.2162 147.8098 0016749 129.0052 231.2488 16.32378042  3177
FALCON 9 DEB            
1 53443U 22097BH  22241.57783144  .05201279  12188-4  53966-3 0  9991
2 53443  53.2165 147.7380 0012462 128.4741 231.7426 16.36705632  3170
2022-098A               
1 53444U 22098A   22241.56830863  .00001641  00000+0  10818-3 0  9993
2 53444  97.5311 337.5525 0011367 182.7699 301.9928 15.08813587  2929
2022-098B               
1 53445U 22098B   22241.56027270  .00002024  00000+0  13029-3 0  9997
2 53445  97.5338 337.5712 0009408 193.6965 291.7664 15.09455034  2908
2022-098C               
1 53446U 22098C   22241.56689801  .00001721  00000+0  11297-3 0  9990
2 53446  97.5356 337.5666 0011617 186.6297 298.2981 15.08926618  2906
2022-098D               
1 53447U 22098D   22241.56518098  .00001804  00000+0  11776-3 0  9994
2 53447  97.5267 337.5453 0010906 188.0215 297.6332 15.09072158  2903
2022-098E               
1 53448U 22098E   22241.56298411  .00001886  00000+0  12230-3 0  9995
2 53448  97.5340 337.5681 0011444 194.2110 292.2584 15.09255765  2907
2022-098F               
1 53449U 22098F   22241.56176169  .00001954  00000+0  12628-3 0  9998
2 53449  97.5293 337.5549 0011055 195.3281 290.6492 15.09345156  2901
2022-098G               
1 53450U 22098G   22241.55912079  .00002033  00000+0  13058-3 0  9994
2 53450  97.5340 337.5726 0008423 193.6287 291.9921 15.09547187  2904
2022-098H               
1 53451U 22098H   22241.55813363  .00002033  00000+0  13030-3 0  9991
2 53451  97.5385 337.5862 0009070 197.7955 287.9060 15.09625389  2901
2022-098J               
1 53452U 22098J   22241.55694847  .00002119  00000+0  13529-3 0  9994
2 53452  97.5289 337.5613 0009122 199.6368 286.0857 15.09719797  2907
2022-098K               
1 53453U 22098K   22241.55592520  .00002143  00000+0  13643-3 0  9994
2 53453  97.5338 337.5762 0009723 203.0896 282.7771 15.09801783  2906
2022-098L               
1 53454U 22098L   22241.55355488  .00003259  00000+0  20414-3 0  9998
2 53454  97.5288 337.5646 0011556 210.2202 275.8739 15.10017019  2900
2022-098M               
1 53455U 22098M   22241.55333150  .00003240  00000+0  20287-3 0  9999
2 53455  97.5306 337.5706 0011442 211.5475 274.5734 15.10034897  2903
2022-098N               
1 53456U 22098N   22241.55282339  .00003243  00000+0  20283-3 0  9991
2 53456  97.5275 337.5613 0011144 211.6333 274.4754 15.10074692  2907
2022-098P               
1 53457U 22098P   22241.55075756  .00003235  00000+0  20148-3 0  9996
2 53457  97.5285 337.5658 0010495 213.7397 272.6437 15.10240497  2905
2022-098Q               
1 53458U 22098Q   22241.55129506  .00000093  00000+0  95698-5 0  9993
2 53458  97.5322 337.5772 0010833 214.4490 271.7471 15.10165068  2901
2022-098R               
1 53459U 22098R   22241.55009256  .00003270  00000+0  20338-3 0  9990
2 53459  97.5301 337.5741 0010274 215.0521 271.2450 15.10291153  2903
HSU-SAT1                
1 53462U 98067UB  22241.53984278  .00025471  00000+0  42560-3 0  9995
2 53462  51.6419 333.0369 0006154 198.7386 161.3378 15.51737912  2678
FUTABA                  
1 53463U 98067UC  22241.53858622  .00029866  00000+0  49422-3 0  9995
2 53463  51.6419 333.0287 0006054 200.1819 159.8933 15.51919682  2671
TUMNANOSAT              
1 53464U 98067UD  22241.47290136  .00033264  00000+0  54588-3 0  9995
2 53464  51.6417 333.3398 0006050 201.2395 158.8344 15.52096494  2665
STARLINK-4415           
1 53465U 22099A   22241.66667824 -.01216969  00000+0 -11601-1 0  9996
2 53465  97.6557   0.4658 0001855  61.4190  16.9882 15.69304727  2883
STARLINK-4398           
1 53466U 22099B   22241.66667824 -.01265357  00000+0 -14112-1 0  9992
2 53466  97.6560   0.4681 0001818  64.8936 359.1110 15.65560462  2880
STARLINK-4394           
1 53467U 22099C   22241.66667824 -.01218748  00000+0 -13551-1 0  9991
2 53467  97.6561   0.4681 0001731  68.8375 355.8277 15.65532130  2885
STARLINK-4400           
1 53468U 22099D   22241.58334491 -.01207900  00000+0 -13302-1 0  9996
2 53468  97.6556   0.3763 0001575  86.8850 229.0478 15.65748735  1305
STARLINK-4399           
1 53469U 22099E   22241.66667824 -.01222336  00000+0 -13582-1 0  9995
2 53469  97.6559   0.4683 0001742  58.4510   8.1412 15.65556380  2886
STARLINK-4393           
1 53470U 22099F   22241.66667824 -.01288128  00000+0 -14372-1 0  9996
2 53470  97.6561   0.4680 0001975  55.3394  10.5844 15.65599848  2884
STARLINK-4316           
1 53471U 22099G   22241.66667824 -.01226490  00000+0 -13623-1 0  9999
2 53471  97.6560   0.4682 0001853  56.0371  11.8384 15.65574052  2887
STARLINK-4447           
1 53472U 22099H   22241.66667824 -.01199315  00000+0 -13304-1 0  9991
2 53472  97.6560   0.4681 0001784  58.1010   9.1426 15.65546014  2887
